1 20253U 89077A   26150.45666992 -.00000365  00000-0  00000-0 0  9999
2 20253  12.4264 351.2729 0005806  31.1296 155.4228  1.00263215260389
1 20776U 90079A   26150.72358550  .00000129  00000-0  00000+0 0  9997
2 20776  13.3459 349.9360 0002952  76.0254 116.1581  1.00269576130716
1 22787U 93056A   26150.72271882  .00000128  00000-0  00000+0 0  9990
2 22787  11.8870   3.6548 0006963   2.6515 170.7859  1.00268376118372
1 23467U 95003A   26150.50168437 -.00000018  00000-0  00000-0 0  9997
2 23467   9.7014  13.2923 0003011  46.8614 180.7084  1.00269664114771
1 23967U 96042A   26150.01543985 -.00000279  00000-0  00000-0 0  9996
2 23967  11.0998  17.1843 0005593 104.1460  90.6604  1.00220317109303
1 25544U 98067A   26150.83995330  .00011335  00000-0  20978-3 0  9996
2 25544  51.6338  25.9780 0007215 115.7878 244.3855 15.49504954569064
1 25967U 99063A   26149.99949693 -.00000184  00000-0  00000-0 0  9990
2 25967   9.8479  27.3069 0002062  11.4364 185.6232  1.00274366 97163
1 27168U 02001A   26150.79210793  .00000101  00000-0  00000+0 0  9990
2 27168  11.1594  22.0156 0099946   7.9531 162.4088  1.00271648 32783
1 27607U 02058C   26150.48779528  .00001244  00000-0  16366-3 0  9997
2 27607  64.5508 183.7455 0075560 265.7135  93.5335 14.83004849261836
1 28117U 03057A   26150.73195552 -.00000098  00000-0  00000+0 0  9992
2 28117   8.9321  33.9154 0002308  37.5564 155.7810  1.00273652 82274
1 28899U 05044A   26150.60285330 -.00000251  00000-0  00000+0 0  9998
2 28899   5.0729  43.7270 0003367  26.0323 178.8808  1.00272330 75346
1 30794U 07007B   26150.84886225 -.00000262  00000-0  00000+0 0  9994
2 30794   5.2578  73.9475 0003991   2.8155 212.4192  1.00270764 70522
1 32294U 07056B   26150.50806478  .00000149  00000-0  00000-0 0  9994
2 32294   5.2088  73.7109 0003779 350.5184  31.7739  1.00271555 68026
1 35943U 09054B   26150.80077463  .00000037  00000-0  00000+0 0  9990
2 35943   0.0446  68.9231 0003199   1.6432 169.0457  1.00270442 61130
1 36582U 10021B   26150.79089457  .00000101  00000-0  00000+0 0  9992
2 36582   0.0572 104.4980 0003182 339.6327 102.0665  1.00274462 58787
1 38098U 12011A   26150.80259463 -.00000046  00000-0  00000+0 0  9994
2 38098   0.0028 358.7874 0002016  68.3104 182.2419  1.00271681  7014
1 39034U 12075A   26150.79878127  .00000112  00000-0  00000+0 0  9990
2 39034   0.0674 344.4786 0003951  90.7843 153.3962  1.00270116 48989
1 39215U 13038A   26150.65061795  .00000144  00000-0  00000+0 0  9996
2 39215   2.9976   1.5465 0002219  58.5548  87.1569  1.00271806 43845
1 40296U 14069A   26150.23817331  .00000267  00000-0  00000-0 0  9998
2 40296  63.4464 217.1066 6654794 270.6767  19.6429  2.00591198 84872
1 40931U 15052B   25151.18580175  .00001241  00000-0  78118-4 0  9996
2 40931   6.0006  24.0987 0012733 338.8432  21.1169 14.78805930523159
1 43678U 18084H   26150.83056016  .00003365  00000-0  27290-3 0  9992
2 43678  98.1143 346.2891 0011768 228.5022 131.5191 15.00361729413613
1 43700U 18090A   26150.79340793  .00000157  00000-0  00000+0 0  9990
2 43700   0.0183 317.7409 0001805 136.5877 105.3947  1.00270558 27501
1 43803U 18099AX  26150.14963961  .00022375  00000-0  70257-3 0  9991
2 43803  97.4140 212.9285 0004668 349.6611  10.4534 15.33015809410869
1 44453U 19046A   26149.77372628 -.00000095  00000-0  00000-0 0  9999
2 44453  63.1089  53.1392 7071059 274.8090  14.7491  2.00602074 49977
1 44909U 19096E   26150.57067963  .00000031  00000-0  76848-4 0  9999
2 44909  82.5221 351.4139 0217364 185.2973 174.5828 12.79748548300094
1 45254U 20015A   26149.52413197 -.00000174  00000-0  00000-0 0  9995
2 45254  65.4859 320.9626 6863433 278.2299  15.0535  2.00602036 45916
1 52145U 22030A   26150.02567116  .00000200  00000-0  00000-0 0  9998
2 52145  62.6781 142.7431 6778834 272.8642  17.6801  2.00615121 30661
1 57167U 23091B   26010.59363612  .08733485  25619-5  12458-2 0  9993
2 57167  97.4978  91.1570 0009532 282.8011  77.2220 16.34765267141469
1 59112U 24043Q   26150.86186249  .00042275  00000-0  57734-3 0  9998
2 59112  97.5514 300.2149 0006089 257.1989 102.8585 15.57341775125196
1 67291U 25313AV  26150.18219484  .00020165  00000-0  79009-3 0  9992
2 67291  97.3945 225.5858 0009981  65.1634 295.0641 15.25768544 23246
1 26635U 00080A   21013.46269075 0.00000000  00000-0  00000-0 0    09
2 26635   9.2857  29.8038 0014383 186.3086 173.6859  1.00273100    09
1 34810U 09020A   26118.58802400 0.00000000  00000-0  00000-0 0    05
2 34810   3.0809  80.0043 0003222 250.4250 109.5484  1.00270000    01
1 40614U 15022B   25359.93496764 0.00000000  00000-0  00000-0 0    00
2 40614   0.0160 108.2839 0003453 352.8976   7.0980  1.00270000    04
